STARLINK-2085_new
1 17369C 21005W   21326.13941075 -.00012209  00000-0 -81786-3 0  3264
2 17369  53.0539 243.1236 0002021  61.7180  79.5205 15.06416059    11
STARLINK-2085_old
1 27369C 21005W   21325.13592651  .00008381  00000-0  56152-3 0  3257
2 27369  53.0538 247.6283 0001949  61.5119  34.7758 15.06390828    10
